start=new Date('2022-10-13T00:00:00.000Z').valueOf();
sats=[{"INCLINATION":"53.0554","REV_AT_EPOCH":"7752","TIME_SYSTEM":"UTC","ECCENTRICITY":"0.00021530","SITE":"AFETR","TLE_LINE2":"2 48555  53.0554 327.2595 0002153  42.4127 317.7028 15.06395477 77521","BSTAR":"0.00005186700000","ELEMENT_SET_NO":"999","CLASSIFICATION_TYPE":"U","FILE":"3606148","COUNTRY_CODE":"US","APOAPSIS":"548.718","DECAY_DATE":null,"PERIOD":"95.592","MEAN_MOTION_DOT":"0.00000491","CENTER_NAME":"EARTH","MEAN_MOTION_DDOT":"0.0000000000000","RCS_SIZE":"LARGE","TLE_LINE1":"1 48555U 21041C   22285.44472916  .00000491  00000-0  51867-4 0  9996","OBJECT_ID":"2021-041C","MEAN_ANOMALY":"317.7028","MEAN_ELEMENT_THEORY":"SGP4","REF_FRAME":"TEME","EPOCH":"2022-10-12T10:40:24.599424","GP_ID":"214881702","OBJECT_TYPE":"PAYLOAD","LAUNCH_DATE":"2021-05-15","PERIAPSIS":"545.736","SEMIMAJOR_AXIS":"6925.362","MEAN_MOTION":"15.06395477","OBJECT_NAME":"STARLINK-2145","ARG_OF_PERICENTER":"42.4127","EPHEMERIS_TYPE":"0","NORAD_CAT_ID":"48555","RA_OF_ASC_NODE":"327.2595"},{"SITE":"AFETR","TIME_SYSTEM":"UTC","ECCENTRICITY":"0.00020380","REV_AT_EPOCH":"7798","INCLINATION":"53.0550","CLASSIFICATION_TYPE":"U","ELEMENT_SET_NO":"999","BSTAR":"0.00014963000000","TLE_LINE2":"2 48556  53.0550 327.0112 0002038  48.3959 311.7204 15.06398171 77985","DECAY_DATE":null,"APOAPSIS":"548.631","COUNTRY_CODE":"US","FILE":"3606443","CENTER_NAME":"EARTH","MEAN_MOTION_DOT":"0.00001948","PERIOD":"95.592","MEAN_ELEMENT_THEORY":"SGP4","MEAN_ANOMALY":"311.7204","RCS_SIZE":"LARGE","TLE_LINE1":"1 48556U 21041D   22285.50001456  .00001948  00000-0  14963-3 0  9994","OBJECT_ID":"2021-041D","MEAN_MOTION_DDOT":"0.0000000000000","GP_ID":"214889208","OBJECT_TYPE":"PAYLOAD","EPOCH":"2022-10-12T12:00:01.257984","REF_FRAME":"TEME","MEAN_MOTION":"15.06398171","PERIAPSIS":"545.808","SEMIMAJOR_AXIS":"6925.354","LAUNCH_DATE":"2021-05-15","RA_OF_ASC_NODE":"327.0112","EPHEMERIS_TYPE":"0","NORAD_CAT_ID":"48556","OBJECT_NAME":"STARLINK-2151","ARG_OF_PERICENTER":"48.3959"},{"SITE":"AFETR","ECCENTRICITY":"0.00018800","TIME_SYSTEM":"UTC","REV_AT_EPOCH":"7765","INCLINATION":"53.0546","CLASSIFICATION_TYPE":"U","ELEMENT_SET_NO":"999","BSTAR":"0.00008523000000","TLE_LINE2":"2 48557  53.0546 317.5736 0001880  46.9149 313.1997 15.06400190 77650","DECAY_DATE":null,"APOAPSIS":"548.515","COUNTRY_CODE":"US","FILE":"3606148","CENTER_NAME":"EARTH","MEAN_MOTION_DOT":"0.00000988","PERIOD":"95.592","MEAN_ELEMENT_THEORY":"SGP4","MEAN_ANOMALY":"313.1997","TLE_LINE1":"1 48557U 21041E   22285.37192294  .00000988  00000-0  85230-4 0  9990","OBJECT_ID":"2021-041E","RCS_SIZE":"LARGE","MEAN_MOTION_DDOT":"0.0000000000000","OBJECT_TYPE":"PAYLOAD","GP_ID":"214880708","EPOCH":"2022-10-12T08:55:34.142016","REF_FRAME":"TEME","MEAN_MOTION":"15.06400190","SEMIMAJOR_AXIS":"6925.348","PERIAPSIS":"545.911","LAUNCH_DATE":"2021-05-15","RA_OF_ASC_NODE":"317.5736","NORAD_CAT_ID":"48557","EPHEMERIS_TYPE":"0","ARG_OF_PERICENTER":"46.9149","OBJECT_NAME":"STARLINK-2155"},{"CLASSIFICATION_TYPE":"U","ELEMENT_SET_NO":"999","BSTAR":"-0.00030491000000","TLE_LINE2":"2 48558  53.0547 317.0112 0001595  60.6162 299.4986 15.06408317 78076","SITE":"AFETR","ECCENTRICITY":"0.00015950","TIME_SYSTEM":"UTC","REV_AT_EPOCH":"7807","INCLINATION":"53.0547","CENTER_NAME":"EARTH","MEAN_MOTION_DOT":"-0.00004821","PERIOD":"95.592","DECAY_DATE":null,"APOAPSIS":"548.293","COUNTRY_CODE":"US","FILE":"3606486","GP_ID":"214890259","OBJECT_TYPE":"PAYLOAD","EPOCH":"2022-10-12T12:01:20.340768","REF_FRAME":"TEME","MEAN_ELEMENT_THEORY":"SGP4","MEAN_ANOMALY":"299.4986","RCS_SIZE":"LARGE","OBJECT_ID":"2021-041F","TLE_LINE1":"1 48558U 21041F   22285.50092987 -.00004821  00000-0 -30491-3 0  9994","MEAN_MOTION_DDOT":"0.0000000000000","RA_OF_ASC_NODE":"317.0112","EPHEMERIS_TYPE":"0","NORAD_CAT_ID":"48558","OBJECT_NAME":"STARLINK-2166","ARG_OF_PERICENTER":"60.6162","MEAN_MOTION":"15.06408317","PERIAPSIS":"546.083","SEMIMAJOR_AXIS":"6925.323","LAUNCH_DATE":"2021-05-15"},{"TLE_LINE2":"2 48559  53.0563 317.1373 0001850  49.8743 310.2408 15.06400751 77662","BSTAR":"0.00011240000000","ELEMENT_SET_NO":"999","CLASSIFICATION_TYPE":"U","INCLINATION":"53.0563","REV_AT_EPOCH":"7766","TIME_SYSTEM":"UTC","ECCENTRICITY":"0.00018500","SITE":"AFETR","PERIOD":"95.592","MEAN_MOTION_DOT":"0.00001393","CENTER_NAME":"EARTH","FILE":"3606148","COUNTRY_CODE":"US","APOAPSIS":"548.492","DECAY_DATE":null,"REF_FRAME":"TEME","EPOCH":"2022-10-12T11:17:31.455744","GP_ID":"214881202","OBJECT_TYPE":"PAYLOAD","MEAN_MOTION_DDOT":"0.0000000000000","RCS_SIZE":"LARGE","OBJECT_ID":"2021-041G","TLE_LINE1":"1 48559U 21041G   22285.47050296  .00001393  00000-0  11240-3 0  9998","MEAN_ANOMALY":"310.2408","MEAN_ELEMENT_THEORY":"SGP4","OBJECT_NAME":"STARLINK-2167","ARG_OF_PERICENTER":"49.8743","EPHEMERIS_TYPE":"0","NORAD_CAT_ID":"48559","RA_OF_ASC_NODE":"317.1373","LAUNCH_DATE":"2021-05-15","PERIAPSIS":"545.930","SEMIMAJOR_AXIS":"6925.346","MEAN_MOTION":"15.06400751"},{"MEAN_ANOMALY":"299.8023","MEAN_ELEMENT_THEORY":"SGP4","MEAN_MOTION_DDOT":"0.0000000000000","TLE_LINE1":"1 48561U 21041J   22285.41895592  .00000533  00000-0  54687-4 0  9999","OBJECT_ID":"2021-041J","RCS_SIZE":"LARGE","OBJECT_TYPE":"PAYLOAD","GP_ID":"214881956","REF_FRAME":"TEME","EPOCH":"2022-10-12T10:03:17.791488","MEAN_MOTION":"15.06402933","LAUNCH_DATE":"2021-05-15","SEMIMAJOR_AXIS":"6925.340","PERIAPSIS":"546.125","NORAD_CAT_ID":"48561","EPHEMERIS_TYPE":"0","RA_OF_ASC_NODE":"287.6404","ARG_OF_PERICENTER":"60.3121","OBJECT_NAME":"STARLINK-2186","ECCENTRICITY":"0.00015590","TIME_SYSTEM":"UTC","SITE":"AFETR","INCLINATION":"53.0546","REV_AT_EPOCH":"7808","ELEMENT_SET_NO":"999","CLASSIFICATION_TYPE":"U","BSTAR":"0.00005468700000","TLE_LINE2":"2 48561  53.0546 287.6404 0001559  60.3121 299.8023 15.06402933 78082","APOAPSIS":"548.284","DECAY_DATE":null,"FILE":"3606148","COUNTRY_CODE":"US","CENTER_NAME":"EARTH","PERIOD":"95.592","MEAN_MOTION_DOT":"0.00000533"},{"MEAN_ANOMALY":"310.3939","MEAN_ELEMENT_THEORY":"SGP4","MEAN_MOTION_DDOT":"0.0000000000000","TLE_LINE1":"1 48562U 21041K   22285.41249694 -.00001533  00000-0 -84110-4 0  9993","OBJECT_ID":"2021-041K","RCS_SIZE":"LARGE","OBJECT_TYPE":"PAYLOAD","GP_ID":"214880208","REF_FRAME":"TEME","EPOCH":"2022-10-12T09:53:59.735616","MEAN_MOTION":"15.06379419","LAUNCH_DATE":"2021-05-15","SEMIMAJOR_AXIS":"6925.412","PERIAPSIS":"546.019","NORAD_CAT_ID":"48562","EPHEMERIS_TYPE":"0","RA_OF_ASC_NODE":"317.3921","ARG_OF_PERICENTER":"49.7208","OBJECT_NAME":"STARLINK-2187","TIME_SYSTEM":"UTC","ECCENTRICITY":"0.00018160","SITE":"AFETR","INCLINATION":"53.0560","REV_AT_EPOCH":"7766","ELEMENT_SET_NO":"999","CLASSIFICATION_TYPE":"U","BSTAR":"-0.00008411000000","TLE_LINE2":"2 48562  53.0560 317.3921 0001816  49.7208 310.3939 15.06379419 77667","APOAPSIS":"548.534","DECAY_DATE":null,"FILE":"3606148","COUNTRY_CODE":"US","CENTER_NAME":"EARTH","PERIOD":"95.593","MEAN_MOTION_DOT":"-0.00001533"},{"OBJECT_TYPE":"PAYLOAD","GP_ID":"214920597","EPOCH":"2022-10-12T13:31:35.028768","REF_FRAME":"TEME","MEAN_ELEMENT_THEORY":"SGP4","MEAN_ANOMALY":"314.8859","TLE_LINE1":"1 48563U 21041L   22285.56359987  .00000250  00000-0  35677-4 0  9994","OBJECT_ID":"2021-041L","RCS_SIZE":"LARGE","MEAN_MOTION_DDOT":"0.0000000000000","RA_OF_ASC_NODE":"316.7086","NORAD_CAT_ID":"48563","EPHEMERIS_TYPE":"0","ARG_OF_PERICENTER":"45.2288","OBJECT_NAME":"STARLINK-2188","MEAN_MOTION":"15.06395322","SEMIMAJOR_AXIS":"6925.363","PERIAPSIS":"545.880","LAUNCH_DATE":"2021-05-15","CLASSIFICATION_TYPE":"U","ELEMENT_SET_NO":"999","BSTAR":"0.00003567700000","TLE_LINE2":"2 48563  53.0545 316.7086 0001947  45.2288 314.8859 15.06395322 77683","SITE":"AFETR","ECCENTRICITY":"0.00019470","TIME_SYSTEM":"UTC","REV_AT_EPOCH":"7768","INCLINATION":"53.0545","CENTER_NAME":"EARTH","MEAN_MOTION_DOT":"0.00000250","PERIOD":"95.592","DECAY_DATE":null,"APOAPSIS":"548.576","COUNTRY_CODE":"US","FILE":"3606891"},{"MEAN_MOTION":"15.06388988","LAUNCH_DATE":"2021-05-15","SEMIMAJOR_AXIS":"6925.382","PERIAPSIS":"545.909","NORAD_CAT_ID":"48564","EPHEMERIS_TYPE":"0","RA_OF_ASC_NODE":"316.7656","ARG_OF_PERICENTER":"46.4085","OBJECT_NAME":"STARLINK-2190","MEAN_ANOMALY":"313.7064","MEAN_ELEMENT_THEORY":"SGP4","MEAN_MOTION_DDOT":"0.0000000000000","TLE_LINE1":"1 48564U 21041M   22285.55623233 -.00000794  00000-0 -34442-4 0  9996","OBJECT_ID":"2021-041M","RCS_SIZE":"LARGE","OBJECT_TYPE":"PAYLOAD","GP_ID":"214921843","REF_FRAME":"TEME","EPOCH":"2022-10-12T13:20:58.473312","APOAPSIS":"548.585","DECAY_DATE":null,"FILE":"3606891","COUNTRY_CODE":"US","CENTER_NAME":"EARTH","PERIOD":"95.593","MEAN_MOTION_DOT":"-0.00000794","ECCENTRICITY":"0.00019320","TIME_SYSTEM":"UTC","SITE":"AFETR","INCLINATION":"53.0544","REV_AT_EPOCH":"7768","ELEMENT_SET_NO":"999","CLASSIFICATION_TYPE":"U","TLE_LINE2":"2 48564  53.0544 316.7656 0001932  46.4085 313.7064 15.06388988 77684","BSTAR":"-0.00003444200000"},{"MEAN_MOTION_DOT":"0.00003075","PERIOD":"95.592","CENTER_NAME":"EARTH","COUNTRY_CODE":"US","FILE":"3606891","DECAY_DATE":null,"APOAPSIS":"548.589","TLE_LINE2":"2 48565  53.0548 316.7659 0001996  46.9924 313.1232 15.06402185 77686","BSTAR":"0.00022523000000","CLASSIFICATION_TYPE":"U","ELEMENT_SET_NO":"999","REV_AT_EPOCH":"7768","INCLINATION":"53.0548","SITE":"AFETR","ECCENTRICITY":"0.00019960","TIME_SYSTEM":"UTC","OBJECT_NAME":"STARLINK-2191","ARG_OF_PERICENTER":"46.9924","RA_OF_ASC_NODE":"316.7659","EPHEMERIS_TYPE":"0","NORAD_CAT_ID":"48565","PERIAPSIS":"545.825","SEMIMAJOR_AXIS":"6925.342","LAUNCH_DATE":"2021-05-15","MEAN_MOTION":"15.06402185","EPOCH":"2022-10-12T13:14:17.731104","REF_FRAME":"TEME","GP_ID":"214922084","OBJECT_TYPE":"PAYLOAD","RCS_SIZE":"LARGE","OBJECT_ID":"2021-041N","TLE_LINE1":"1 48565U 21041N   22285.55159411  .00003075  00000-0  22523-3 0  9998","MEAN_MOTION_DDOT":"0.0000000000000","MEAN_ELEMENT_THEORY":"SGP4","MEAN_ANOMALY":"313.1232"}];
